CUTE-1 (CO-55)          
1 27844U 03031E   21356.93502098  .00000158  00000+0  90497-4 0  9991
2 27844  98.6801   2.2898 0008888 251.4369 108.5844 14.22361300958778
CUBESAT XI-IV (CO-57)   
1 27848U 03031J   21356.91428142  .00000125  00000+0  76495-4 0  9996
2 27848  98.6851   2.8180 0008711 266.8352  93.1829 14.21931173958596
CUBESAT XI-V            
1 28895U 05043F   21356.93067194  .00000565  00000+0  11670-3 0  9993
2 28895  98.0829 126.3572 0016140 341.0609  18.9992 14.64031466861582
CUTE-1.7+APD II (CO-65) 
1 32785U 08021C   21356.71893273  .00001300  00000+0  14377-3 0  9991
2 32785  97.6352 328.5168 0014408  98.3072 261.9780 14.88942593740184
AAUSAT-II               
1 32788U 08021F   21356.93569090  .00002972  00000+0  26915-3 0  9992
2 32788  97.5197 343.8828 0011781   5.7634 354.3721 14.96059718742038
DELFI-C3 (DO-64)        
1 32789U 08021G   21356.67787459  .00007803  00000+0  48128-3 0  9993
2 32789  97.3585  24.7258 0010573 206.4538 153.6153 15.10147030745226
SEEDS II (CO-66)        
1 32791U 08021J   21356.67327464  .00001983  00000+0  20197-3 0  9991
2 32791  97.5921 334.1785 0014489  62.2987 297.9700 14.91722891740838
SWISSCUBE               
1 35932U 09051B   21356.57654181  .00000512  00000+0  12579-3 0  9995
2 35932  98.5845 202.3815 0006724 225.4835 134.5813 14.56638893650382
BEESAT-1                
1 35933U 09051C   21357.08503552  .00000400  00000+0  10044-3 0  9999
2 35933  98.5797 204.6408 0004784 236.6455 123.4284 14.56684140650574
ITUPSAT1                
1 35935U 09051E   21356.58338934  .00000407  00000+0  10405-3 0  9993
2 35935  98.5899 204.2229 0007061 242.4913 117.5566 14.55809067650147
TISAT 1                 
1 36799U 10035E   21356.78553859  .00002039  00000+0  20680-3 0  9992
2 36799  98.1945 195.2025 0011248 320.9924  39.0482 14.92052201621417
M-CUBED & EXP-1 PRIME   
1 37855U 11061F   21356.88931025  .00006829  00000+0  32309-3 0  9994
2 37855 101.7209  18.3731 0162905 229.7591 128.9278 15.09017520554585
AEROCUBE 4.5A           
1 38767U 12048K   21356.47368200  .00005465  00000+0  39928-3 0  9996
2 38767  64.6673 305.9520 0173565 310.9545  47.6653 14.93378277124349
AEROCUBE 4.5B           
1 38768U 12048L   21357.13983994  .00006033  00000+0  40352-3 0  9999
2 38768  64.6670 262.1586 0164153 305.8274  52.7681 14.97484365124739
STRAND-1                
1 39090U 13009E   21357.13172113  .00000135  00000+0  61970-4 0  9996
2 39090  98.4113 194.7552 0010202  78.1062 282.1267 14.35219079462125
BRITE-AUSTRIA           
1 39091U 13009F   21356.55677954  .00000076  00000+0  41396-4 0  9999
2 39091  98.4121 193.3456 0011651  85.7443 274.5074 14.35217026462052
SOMP                    
1 39134U 13015E   21356.87735550  .00010372  00000+0  42914-3 0  9992
2 39134  64.8640 279.1395 0026534 306.8376  53.0320 15.24067989479913
BEESAT-3                
1 39135U 13015F   21357.15996086  .00008284  00000+0  38258-3 0  9993
2 39135  64.8683 310.6457 0026068 319.2607  40.6570 15.20511969479713
BEESAT-2                
1 39136U 13015G   21356.51815398  .00007675  00000+0  36520-3 0  9992
2 39136  64.8767 319.9372 0011819 254.7324 105.2497 15.19775762479001
NEE-01 PEGASO           
1 39151U 13018B   21357.06781713  .00000847  00000+0  11735-3 0  9991
2 39151  97.9864  98.5209 0018261 106.2550 254.0673 14.80504553467586
ESTCUBE 1               
1 39161U 13021C   21357.18387086  .00000527  00000+0  90417-4 0  9994
2 39161  97.9268  73.9173 0008237 268.3265  91.7061 14.72610251463528
POPACS 1                
1 39268U 13055D   21356.53528723  .00012572  00000+0  32990-3 0  9996
2 39268  80.9994  69.0433 0591243  12.8855 348.6712 14.45628059427702
POPACS 2                
1 39269U 13055E   21356.63477183  .00013905  00000+0  38795-3 0  9991
2 39269  81.0130 120.7263 0660798 146.6835 217.7825 14.29697870424896
POPACS 3                
1 39270U 13055F   21356.87622369  .00006497  00000+0  20155-3 0  9996
2 39270  81.0149 150.3245 0698437 230.7573 122.9619 14.19491481403560
ZACUBE-1 (TSHEPISOSAT)  
1 39417U 13066B   21356.94215302  .00001238  00000+0  15935-3 0  9992
2 39417  97.6150 331.7423 0056921 263.2274  96.2461 14.81733162436980
WNISAT-1                
1 39423U 13066H   21357.18593968  .00000390  00000+0  86740-4 0  9994
2 39423  97.7760 246.4003 0174687 328.7451  30.3456 14.53299251428849
TRITON-1                
1 39427U 13066M   21356.80859901  .00000885  00000+0  14640-3 0  9996
2 39427  97.7976 295.5389 0114250 108.8877 252.4757 14.68426019432850
DELFI-N3XT              
1 39428U 13066N   21356.79875540  .00001380  00000+0  22218-3 0  9993
2 39428  97.8007 294.0377 0120210 121.9353 239.3610 14.68307076432602
GOMX-1                  
1 39430U 13066Q   21357.11025690  .00000645  00000+0  12507-3 0  9999
2 39430  97.8157 269.3489 0148945 240.4720 118.1570 14.59781865430564
CUBEBUG-2 (LO-74)       
1 39440U 13066AA  21356.87221277  .00001522  00000+0  21503-3 0  9992
2 39440  97.7031 317.1937 0079329 345.3549  14.5364 14.76442755434226
NEE-02 KRYSAOR          
1 39441U 13066AB  21356.86884439  .00001062  00000+0  15595-3 0  9990
2 39441  97.7136 314.4572 0081288 357.6376   2.4439 14.75326356433998
FUNCUBE-1 (AO-73)       
1 39444U 13066AE  21356.87612454  .00001447  00000+0  18106-3 0  9998
2 39444  97.6042 334.0697 0055946 252.4868 107.0228 14.82683881435359
UWE-3                   
1 39446U 13066AG  21356.85959875  .00001381  00000+0  18678-3 0  9990
2 39446  97.6623 323.9028 0068286 305.8876  53.6009 14.78988650434353
AEROCUBE 5A             
1 39465U 13072D   21357.14437245  .00028874  00000+0  19007-2 0  9995
2 39465 120.4955  19.7539 0248867  94.6426 268.3097 14.85464179123331
AEROCUBE 5B             
1 39466U 13072E   21356.88916470  .00047279  00000+0  24435-2 0  9999
2 39466 120.4662  88.9717 0205465 109.3373 253.0027 14.99479220124114
BRITE-CA1 (TORONTO)     
1 40020U 14033L   21357.09122939  .00000413  00000+0  78037-4 0  9996
2 40020  97.7555 160.2899 0088519 105.8374 255.2611 14.66820995401928
DUCHIFAT-1              
1 40021U 14033M   21357.11821981  .00002798  00000+0  28349-3 0  9991
2 40021  97.9935 299.5291 0011246 262.3799  97.6142 14.91727012408409
NANOSATC-BR1            
1 40024U 14033Q   21356.79833557  .00002065  00000+0  21583-3 0  9999
2 40024  97.9689 293.4404 0010659 270.7246  89.2750 14.90763923407652
QB50P1                  
1 40025U 14033R   21356.77872102  .00001752  00000+0  18886-3 0  9991
2 40025  97.9472 288.0854 0010965 281.0279  78.9704 14.89711327407454
QB50P2                  
1 40032U 14033Y   21356.80783133  .00001615  00000+0  17671-3 0  9997
2 40032  97.9279 284.1109 0010345 278.3049  81.6995 14.89201151407321
PERSEUS-M2              
1 40037U 14033AD  21356.72630258  .00000680  00000+0  82431-4 0  9990
2 40037  97.8940 275.0194 0013144 301.2048  58.7879 14.86785549406867
PERSEUS-M1              
1 40039U 14033AF  21356.74257630  .00000779  00000+0  94416-4 0  9998
2 40039  97.8861 273.0996 0012977 299.8806  60.1120 14.86403964406758
POLYITAN-1              
1 40042U 14033AJ  21356.78486367  .00002275  00000+0  24412-3 0  9998
2 40042  97.9572 289.0755 0013077 271.5223  88.4496 14.89575684407341
TIGRISAT                
1 40043U 14033AK  21356.48760715  .00000636  00000+0  99924-4 0  9998
2 40043  97.6574 190.2872 0059907  10.9673 349.2827 14.74662066403549
AEROCUBE 6A             
1 40045U 14033AM  21356.55287989  .00001082  00000+0  16027-3 0  9993
2 40045  97.6752 198.4436 0057485 359.6780   0.4383 14.75993554403684
AEROCUBE 6B             
1 40046U 14033AN  21356.82322652  .00001241  00000+0  18251-3 0  9999
2 40046  97.6653 197.3193 0056565 357.4257   2.6654 14.76084523403724
UKUBE-1                 
1 40074U 14037F   21357.08944303  .00001106  00000+0  13740-3 0  9994
2 40074  98.4036 223.3443 0005050 127.9125 232.2563 14.84780781403890
BRITE-PL2 (HEWELIUSZ)   
1 40119U 14049B   21356.79612568  .00000680  00000+0  86352-4 0  9995
2 40119  97.8875  89.3142 0018727  99.8279 260.5051 14.84776915397793
FIREBIRD 4              
1 40378U 15003C   21356.77748953  .00014517  00000+0  49713-3 0  9992
2 40378  99.1131 178.1888 0111483 260.7837  98.0772 15.24544263381461
GRIFEX                  
1 40379U 15003D   21357.03166970  .00008317  00000+0  32326-3 0  9999
2 40379  99.1143 166.1304 0123594 297.1890  61.6785 15.19531906380816
CP10 (EXOCUBE)          
1 40380U 15003E   21356.67013221  .00006446  00000+0  26672-3 0  9998
2 40380  99.1174 159.3227 0129933 319.8116  39.3558 15.16990053380332
TIANWANG 1A (TW-1A)     
1 40928U 15051D   21357.04774137  .00018512  00000+0  34084-3 0  9994
2 40928  97.0613  17.6203 0007734 331.6613  80.6043 15.49186021350853
EXACTVIEW 9             
1 40936U 15052G   21356.93022828  .00001281  00000+0  89267-4 0  9993
2 40936   6.0049 353.0540 0010384 180.0895 179.9231 14.76817217337111
AEROCUBE 5C             
1 40965U 15058B   21357.13284432  .00001020  00000+0  12450-3 0  9995
2 40965  64.7770 266.1701 0208995 254.1771 103.6205 14.74991300122954
AEROCUBE 7              
1 40966U 15058C   21356.91683183  .00001293  00000+0  15183-3 0  9995
2 40966  64.7770 264.4154 0207572 253.9087 103.9077 14.75398281122911
ATHENOXAT 1             
1 41168U 15077C   21357.14294012  .00007830  00000+0  34910-3 0  9998
2 41168  14.9872 312.6288 0010008 288.6561 178.2833 15.16957524333464
GALASSIA                
1 41170U 15077E   21356.49633517  .00008889  00000+0  39987-3 0  9999
2 41170  14.9899 307.7868 0011728 308.5136  51.4134 15.17024301333448
VELOX-II                
1 41171U 15077F   21356.40654984  .00006239  00000+0  30211-3 0  9990
2 41171  14.9932  13.4841 0008452 163.5620 196.4976 15.13346007332737
HORYU-4                 
1 41340U 16012D   21356.41779761  .00002791  00000+0  19988-3 0  9997
2 41340  31.0062  48.6751 0013664 240.3041 119.6235 15.02245214321077
